{
  "type": "FeatureCollection",
  "features": [
    {
      "type": "Feature",
      "properties": {
        "norad_id": 36049,
        "name": "COSMOS 2251 DEB",
        "group": "cosmos-2251-debris",
        "lat": -64.29818840929326,
        "lon": 55.88542295329519,
        "alt_km": 694.9673823283201,
        "timestamp": "2025-12-26T17:24:55.116603+00:00",
        "meta_object_name": "COSMOS 2251 DEB",
        "meta_object_id": "1993-036AXL",
        "meta_epoch": "2025-12-24T16:28:33.256992",
        "meta_mean_motion": 14.62291602,
        "meta_eccentricity": 0.00099539,
        "meta_inclination": 74.0314,
        "meta_ra_of_asc_node": 96.2976,
        "meta_arg_of_pericenter": 184.7355,
        "meta_mean_anomaly": 175.3719,
        "meta_ephemeris_type": 0,
        "meta_classification_type": "U",
        "meta_norad_cat_id": 36049,
        "meta_element_set_no": 999,
        "meta_rev_at_epoch": 85539,
        "meta_bstar": 0.0013226671,
        "meta_mean_motion_dot": 6.656e-05,
        "meta_mean_motion_ddot": 0,
        "tle_line1": "1 36049U 93036AXL 25358.68649603  .00006656  00000+0  13227-2 0  9997",
        "tle_line2": "2 36049  74.0314  96.2976 0009953 184.7355 175.3719 14.62291602855397"
      },
      "geometry": {
        "type": "Point",
        "coordinates": [
          55.88542295329519,
          -64.29818840929326
        ]
      }
    },
    {
      "type": "Feature",
      "properties": {
        "norad_id": 36050,
        "name": "COSMOS 2251 DEB",
        "group": "cosmos-2251-debris",
        "lat": 21.59400099157473,
        "lon": -20.969207037096908,
        "alt_km": 556.1413355300183,
        "timestamp": "2025-12-26T17:24:55.116613+00:00",
        "meta_object_name": "COSMOS 2251 DEB",
        "meta_object_id": "1993-036AXM",
        "meta_epoch": "2025-12-23T18:20:06.375552",
        "meta_mean_motion": 15.01191833,
        "meta_eccentricity": 0.00883826,
        "meta_inclination": 74.0302,
        "meta_ra_of_asc_node": 171.57,
        "meta_arg_of_pericenter": 248.7055,
        "meta_mean_anomaly": 110.468,
        "meta_ephemeris_type": 0,
        "meta_classification_type": "U",
        "meta_norad_cat_id": 36050,
        "meta_element_set_no": 999,
        "meta_rev_at_epoch": 67200,
        "meta_bstar": 0.00066513085,
        "meta_mean_motion_dot": 9.246e-05,
        "meta_mean_motion_ddot": 0,
        "tle_line1": "1 36050U 93036AXM 25357.76396268  .00009246  00000+0  66513-3 0  9998",
        "tle_line2": "2 36050  74.0302 171.5700 0088382 248.7055 110.4680 15.01191833672000"
      },
      "geometry": {
        "type": "Point",
        "coordinates": [
          -20.969207037096908,
          21.59400099157473
        ]
      }
    },
    {
      "type": "Feature",
      "properties": {
        "norad_id": 36053,
        "name": "COSMOS 2251 DEB",
        "group": "cosmos-2251-debris",
        "lat": 17.627964486407123,
        "lon": 131.1230621039638,
        "alt_km": 687.5120172952311,
        "timestamp": "2025-12-26T17:24:55.116623+00:00",
        "meta_object_name": "COSMOS 2251 DEB",
        "meta_object_id": "1993-036AXQ",
        "meta_epoch": "2025-12-26T00:51:23.527872",
        "meta_mean_motion": 14.57338547,
        "meta_eccentricity": 0.00324806,
        "meta_inclination": 73.8704,
        "meta_ra_of_asc_node": 127.1707,
        "meta_arg_of_pericenter": 71.5947,
        "meta_mean_anomaly": 288.8743,
        "meta_ephemeris_type": 0,
        "meta_classification_type": "U",
        "meta_norad_cat_id": 36053,
        "meta_element_set_no": 999,
        "meta_rev_at_epoch": 87638,
        "meta_bstar": 0.0014377554,
        "meta_mean_motion_dot": 6.535e-05,
        "meta_mean_motion_ddot": 0,
        "tle_line1": "1 36053U 93036AXQ 25360.03568898  .00006535  00000+0  14378-2 0  9994",
        "tle_line2": "2 36053  73.8704 127.1707 0032480  71.5947 288.8743 14.57338547876382"
      },
      "geometry": {
        "type": "Point",
        "coordinates": [
          131.1230621039638,
          17.627964486407123
        ]
      }
    },
    {
      "type": "Feature",
      "properties": {
        "norad_id": 36058,
        "name": "COSMOS 2251 DEB",
        "group": "cosmos-2251-debris",
        "lat": -37.19884178265227,
        "lon": -160.6328749765487,
        "alt_km": 698.4758553111451,
        "timestamp": "2025-12-26T17:24:55.116633+00:00",
        "meta_object_name": "COSMOS 2251 DEB",
        "meta_object_id": "1993-036AXV",
        "meta_epoch": "2025-12-20T18:52:04.818432",
        "meta_mean_motion": 14.58726339,
        "meta_eccentricity": 0.00440828,
        "meta_inclination": 74.0229,
        "meta_ra_of_asc_node": 18.1226,
        "meta_arg_of_pericenter": 150.2394,
        "meta_mean_anomaly": 210.1292,
        "meta_ephemeris_type": 0,
        "meta_classification_type": "U",
        "meta_norad_cat_id": 36058,
        "meta_element_set_no": 999,
        "meta_rev_at_epoch": 66228,
        "meta_bstar": 0.0002931852,
        "meta_mean_motion_dot": 1.357e-05,
        "meta_mean_motion_ddot": 0,
        "tle_line1": "1 36058U 93036AXV 25354.78616688  .00001357  00000+0  29319-3 0  9994",
        "tle_line2": "2 36058  74.0229  18.1226 0044082 150.2394 210.1292 14.58726339662289"
      },
      "geometry": {
        "type": "Point",
        "coordinates": [
          -160.6328749765487,
          -37.19884178265227
        ]
      }
    },
    {
      "type": "Feature",
      "properties": {
        "norad_id": 36060,
        "name": "COSMOS 2251 DEB",
        "group": "cosmos-2251-debris",
        "lat": 0.6602601136324404,
        "lon": -151.1803042462405,
        "alt_km": 748.2446718374085,
        "timestamp": "2025-12-26T17:24:55.116642+00:00",
        "meta_object_name": "COSMOS 2251 DEB",
        "meta_object_id": "1993-036AXX",
        "meta_epoch": "2025-12-24T20:27:25.953408",
        "meta_mean_motion": 14.42023746,
        "meta_eccentricity": 0.0015617,
        "meta_inclination": 74.0276,
        "meta_ra_of_asc_node": 212.1036,
        "meta_arg_of_pericenter": 307.841,
        "meta_mean_anomaly": 52.1332,
        "meta_ephemeris_type": 0,
        "meta_classification_type": "U",
        "meta_norad_cat_id": 36060,
        "meta_element_set_no": 999,
        "meta_rev_at_epoch": 85184,
        "meta_bstar": 0.00026955178,
        "meta_mean_motion_dot": 8.59e-06,
        "meta_mean_motion_ddot": 0,
        "tle_line1": "1 36060U 93036AXX 25358.85238372  .00000859  00000+0  26955-3 0  9998",
        "tle_line2": "2 36060  74.0276 212.1036 0015617 307.8410  52.1332 14.42023746851846"
      },
      "geometry": {
        "type": "Point",
        "coordinates": [
          -151.1803042462405,
          0.6602601136324404
        ]
      }
    },
    {
      "type": "Feature",
      "properties": {
        "norad_id": 36061,
        "name": "COSMOS 2251 DEB",
        "group": "cosmos-2251-debris",
        "lat": 51.638678743148546,
        "lon": 132.94427282374718,
        "alt_km": 763.896227839663,
        "timestamp": "2025-12-26T17:24:55.116676+00:00",
        "meta_object_name": "COSMOS 2251 DEB",
        "meta_object_id": "1993-036AXY",
        "meta_epoch": "2025-12-26T05:06:50.998464",
        "meta_mean_motion": 14.33730546,
        "meta_eccentricity": 0.00369994,
        "meta_inclination": 74.0257,
        "meta_ra_of_asc_node": 335.0992,
        "meta_arg_of_pericenter": 58.9018,
        "meta_mean_anomaly": 301.5755,
        "meta_ephemeris_type": 0,
        "meta_classification_type": "U",
        "meta_norad_cat_id": 36061,
        "meta_element_set_no": 999,
        "meta_rev_at_epoch": 65297,
        "meta_bstar": 0.00033911755,
        "meta_mean_motion_dot": 9.23e-06,
        "meta_mean_motion_ddot": 0,
        "tle_line1": "1 36061U 93036AXY 25360.21309026  .00000923  00000+0  33912-3 0  9990",
        "tle_line2": "2 36061  74.0257 335.0992 0036999  58.9018 301.5755 14.33730546652972"
      },
      "geometry": {
        "type": "Point",
        "coordinates": [
          132.94427282374718,
          51.638678743148546
        ]
      }
    },
    {
      "type": "Feature",
      "properties": {
        "norad_id": 36073,
        "name": "COSMOS 2251 DEB",
        "group": "cosmos-2251-debris",
        "lat": -69.2079121874927,
        "lon": -112.014642341818,
        "alt_km": 778.3940328932031,
        "timestamp": "2025-12-26T17:24:55.116687+00:00",
        "meta_object_name": "COSMOS 2251 DEB",
        "meta_object_id": "1993-036AYL",
        "meta_epoch": "2025-12-18T03:58:06.481920",
        "meta_mean_motion": 14.34959898,
        "meta_eccentricity": 0.00240895,
        "meta_inclination": 74.0326,
        "meta_ra_of_asc_node": 312.6126,
        "meta_arg_of_pericenter": 19.0207,
        "meta_mean_anomaly": 341.1839,
        "meta_ephemeris_type": 0,
        "meta_classification_type": "U",
        "meta_norad_cat_id": 36073,
        "meta_element_set_no": 999,
        "meta_rev_at_epoch": 70285,
        "meta_bstar": 0.0001893667,
        "meta_mean_motion_dot": 5.14e-06,
        "meta_mean_motion_ddot": 0,
        "tle_line1": "1 36073U 93036AYL 25352.16535280  .00000514  00000+0  18937-3 0  9997",
        "tle_line2": "2 36073  74.0326 312.6126 0024089  19.0207 341.1839 14.34959898702857"
      },
      "geometry": {
        "type": "Point",
        "coordinates": [
          -112.014642341818,
          -69.2079121874927
        ]
      }
    }
  ]
}